{
    "type": "FeatureCollection",
    "features": [
        {
            "type": "Feature",
            "properties": {},
            "geometry": {
                "type": "LineString",
                "coordinates": [
                    [
                        76.754309,
                        30.681536
                    ],
                    [
                        76.749422,
                        30.687573
                    ],
                    [
                        76.744535,
                        30.693418
                    ],
                    [
                        76.740092,
                        30.698691
                    ],
                    [
                        76.740047,
                        30.699417
                    ],
                    [
                        76.739159,
                        30.699837
                    ],
                    [
                        76.73239,
                        30.707762
                    ],
                    [
                        76.723776,
                        30.718063
                    ],
                    [
                        76.718156,
                        30.724746
                    ],
                    [
                        76.71558,
                        30.727687
                    ],
                    [
                        76.714797,
                        30.727356
                    ],
                    [
                        76.713378,
                        30.727229
                    ],
                    [
                        76.712167,
                        30.727382
                    ],
                    [
                        76.71063,
                        30.727229
                    ],
                    [
                        76.709034,
                        30.726188
                    ],
                    [
                        76.705629,
                        30.724016
                    ],
                    [
                        76.702703,
                        30.722187
                    ],
                    [
                        76.694368,
                        30.716928
                    ],
                    [
                        76.691176,
                        30.714971
                    ],
                    [
                        76.691191,
                        30.714999
                    ],
                    [
                        76.691191,
                        30.714999
                    ]
                ]
            }
        }
    ]
}