{
    "type": "FeatureCollection",
    "features": [
        {
            "type": "Feature",
            "properties": {},
            "geometry": {
                "type": "LineString",
                "coordinates": [
                    [
                        76.731336,
                        30.827699
                    ],
                    [
                        76.727117,
                        30.82327
                    ],
                    [
                        76.725148,
                        30.821338
                    ],
                    [
                        76.722617,
                        30.820372
                    ],
                    [
                        76.71896,
                        30.816185
                    ],
                    [
                        76.717554,
                        30.815379
                    ],
                    [
                        76.715679,
                        30.815541
                    ],
                    [
                        76.713429,
                        30.814172
                    ],
                    [
                        76.70996,
                        30.814011
                    ],
                    [
                        76.70199,
                        30.810709
                    ],
                    [
                        76.696458,
                        30.808615
                    ],
                    [
                        76.690028,
                        30.80219
                    ],
                    [
                        76.686653,
                        30.797277
                    ],
                    [
                        76.685715,
                        30.794217
                    ],
                    [
                        76.685246,
                        30.792123
                    ],
                    [
                        76.685153,
                        30.78874
                    ],
                    [
                        76.686278,
                        30.78576
                    ],
                    [
                        76.68684,
                        30.783826
                    ],
                    [
                        76.681025,
                        30.778675
                    ],
                    [
                        76.678773,
                        30.774805
                    ],
                    [
                        76.67795,
                        30.772104
                    ],
                    [
                        76.677585,
                        30.768234
                    ],
                    [
                        76.676915,
                        30.758244
                    ],
                    [
                        76.676354,
                        30.744653
                    ],
                    [
                        76.674774,
                        30.740967
                    ],
                    [
                        76.674435,
                        30.736601
                    ],
                    [
                        76.675451,
                        30.732526
                    ],
                    [
                        76.679064,
                        30.728276
                    ],
                    [
                        76.687668,
                        30.719476
                    ],
                    [
                        76.692119,
                        30.714374
                    ],
                    [
                        76.706075,
                        30.697404
                    ],
                    [
                        76.723149,
                        30.677187
                    ],
                    [
                        76.73088,
                        30.667601
                    ],
                    [
                        76.737912,
                        30.657927
                    ],
                    [
                        76.740121,
                        30.654818
                    ],
                    [
                        76.747751,
                        30.648858
                    ],
                    [
                        76.753775,
                        30.642639
                    ],
                    [
                        76.764668,
                        30.633293
                    ],
                    [
                        76.772298,
                        30.627159
                    ],
                    [
                        76.789868,
                        30.622062
                    ],
                    [
                        76.802217,
                        30.61731
                    ],
                    [
                        76.804727,
                        30.616791
                    ],
                    [
                        76.824255,
                        30.62285
                    ]
                ]
            }
        }
    ]
}