{
    "type": "FeatureCollection",
    "features": [
        {
            "type": "Feature",
            "properties": {},
            "geometry": {
                "type": "LineString",
                "coordinates": [
                    [
                        76.70282,
                        30.658638
                    ],
                    [
                        76.70876,
                        30.661926
                    ],
                    [
                        76.717555,
                        30.667749
                    ],
                    [
                        76.719996,
                        30.668739
                    ],
                    [
                        76.726335,
                        30.67324
                    ],
                    [
                        76.735041,
                        30.67872
                    ],
                    [
                        76.753528,
                        30.690035
                    ],
                    [
                        76.761213,
                        30.695102
                    ],
                    [
                        76.766764,
                        30.698479
                    ],
                    [
                        76.772656,
                        30.702004
                    ],
                    [
                        76.788115,
                        30.711814
                    ],
                    [
                        76.793727,
                        30.715406
                    ],
                    [
                        76.795898,
                        30.716497
                    ],
                    [
                        76.806495,
                        30.723445
                    ],
                    [
                        76.814058,
                        30.727943
                    ],
                    [
                        76.814053,
                        30.727936
                    ]
                ]
            }
        }
    ]
}