{
    "type": "FeatureCollection",
    "features": [
        {
            "type": "Feature",
            "properties": {},
            "geometry": {
                "type": "LineString",
                "coordinates": [
                    [
                        76.719799,
                        30.846744
                    ],
                    [
                        76.720658,
                        30.845671
                    ],
                    [
                        76.721751,
                        30.840039
                    ],
                    [
                        76.722298,
                        30.838094
                    ],
                    [
                        76.723574,
                        30.836209
                    ],
                    [
                        76.726323,
                        30.83394
                    ],
                    [
                        76.727908,
                        30.832397
                    ],
                    [
                        76.728965,
                        30.83031
                    ],
                    [
                        76.732242,
                        30.827496
                    ],
                    [
                        76.73499,
                        30.82441
                    ],
                    [
                        76.737106,
                        30.819478
                    ],
                    [
                        76.73786,
                        30.818421
                    ],
                    [
                        76.73794,
                        30.817365
                    ],
                    [
                        76.73802,
                        30.816423
                    ],
                    [
                        76.739699,
                        30.811857
                    ],
                    [
                        76.741173,
                        30.807676
                    ],
                    [
                        76.741753,
                        30.805451
                    ],
                    [
                        76.745103,
                        30.801884
                    ],
                    [
                        76.747738,
                        30.799735
                    ],
                    [
                        76.748607,
                        30.79873
                    ],
                    [
                        76.750168,
                        30.793969
                    ],
                    [
                        76.75097,
                        30.792636
                    ],
                    [
                        76.754503,
                        30.788116
                    ],
                    [
                        76.756071,
                        30.786319
                    ],
                    [
                        76.759569,
                        30.783383
                    ],
                    [
                        76.763536,
                        30.780114
                    ],
                    [
                        76.768681,
                        30.776975
                    ],
                    [
                        76.769956,
                        30.775906
                    ],
                    [
                        76.770932,
                        30.773071
                    ],
                    [
                        76.769526,
                        30.771075
                    ],
                    [
                        76.76871,
                        30.769297
                    ],
                    [
                        76.769651,
                        30.766995
                    ]
                ]
            }
        }
    ]
}