{
    "type": "FeatureCollection",
    "features": [
        {
            "type": "Feature",
            "properties": {},
            "geometry": {
                "type": "LineString",
                "coordinates": [
                    [
                        76.688318,
                        30.834395
                    ],
                    [
                        76.689589,
                        30.831121
                    ],
                    [
                        76.692327,
                        30.826082
                    ],
                    [
                        76.699172,
                        30.814577
                    ],
                    [
                        76.704062,
                        30.807018
                    ],
                    [
                        76.707813,
                        30.798586
                    ],
                    [
                        76.711029,
                        30.792832
                    ],
                    [
                        76.726245,
                        30.772547
                    ],
                    [
                        76.728533,
                        30.769562
                    ],
                    [
                        76.733669,
                        30.766804
                    ],
                    [
                        76.739768,
                        30.765701
                    ],
                    [
                        76.747539,
                        30.76568
                    ],
                    [
                        76.747539,
                        30.765611
                    ]
                ]
            }
        }
    ]
}