{
    "type": "FeatureCollection",
    "features": [
        {
            "type": "Feature",
            "properties": {},
            "geometry": {
                "type": "LineString",
                "coordinates": [
                    [
                        76.759603,
                        30.757919
                    ],
                    [
                        76.750358,
                        30.75189
                    ],
                    [
                        76.742269,
                        30.746853
                    ],
                    [
                        76.734262,
                        30.741603
                    ],
                    [
                        76.725182,
                        30.73614
                    ],
                    [
                        76.716655,
                        30.730751
                    ],
                    [
                        76.702774,
                        30.731184
                    ],
                    [
                        76.702874,
                        30.731097
                    ]
                ]
            }
        }
    ]
}