{
    "type": "FeatureCollection",
    "features": [
        {
            "type": "Feature",
            "properties": {},
            "geometry": {
                "type": "LineString",
                "coordinates": [
                    [
                        76.705483,
                        30.733112
                    ],
                    [
                        76.706975,
                        30.731411
                    ],
                    [
                        76.706683,
                        30.728399
                    ],
                    [
                        76.706716,
                        30.727758
                    ],
                    [
                        76.709473,
                        30.724439
                    ],
                    [
                        76.71537,
                        30.71724
                    ],
                    [
                        76.717063,
                        30.716496
                    ],
                    [
                        76.718865,
                        30.714266
                    ],
                    [
                        76.718216,
                        30.713925
                    ],
                    [
                        76.720223,
                        30.7116
                    ],
                    [
                        76.721787,
                        30.710928
                    ],
                    [
                        76.725818,
                        30.706066
                    ],
                    [
                        76.7266,
                        30.704203
                    ],
                    [
                        76.729788,
                        30.700583
                    ],
                    [
                        76.730691,
                        30.699134
                    ],
                    [
                        76.731131,
                        30.698604
                    ],
                    [
                        76.731391,
                        30.697513
                    ],
                    [
                        76.732459,
                        30.696123
                    ],
                    [
                        76.733238,
                        30.69518
                    ],
                    [
                        76.73419,
                        30.693939
                    ],
                    [
                        76.734537,
                        30.693468
                    ],
                    [
                        76.734681,
                        30.692351
                    ],
                    [
                        76.73948,
                        30.686584
                    ],
                    [
                        76.740738,
                        30.686099
                    ],
                    [
                        76.741605,
                        30.685241
                    ],
                    [
                        76.74466,
                        30.681602
                    ],
                    [
                        76.745164,
                        30.68113
                    ],
                    [
                        76.746263,
                        30.680599
                    ],
                    [
                        76.748715,
                        30.677663
                    ],
                    [
                        76.748724,
                        30.677653
                    ]
                ]
            }
        }
    ]
}