{
    "type": "FeatureCollection",
    "features": [
        {
            "type": "Feature",
            "properties": {},
            "geometry": {
                "type": "LineString",
                "coordinates": [
                    [
                        76.747544,
                        30.669948
                    ],
                    [
                        76.74295,
                        30.674675
                    ],
                    [
                        76.737801,
                        30.68072
                    ],
                    [
                        76.736522,
                        30.682373
                    ],
                    [
                        76.734892,
                        30.684367
                    ],
                    [
                        76.733245,
                        30.686291
                    ],
                    [
                        76.732384,
                        30.687376
                    ],
                    [
                        76.730405,
                        30.689717
                    ],
                    [
                        76.728658,
                        30.691847
                    ],
                    [
                        76.728251,
                        30.692352
                    ],
                    [
                        76.727437,
                        30.69332
                    ],
                    [
                        76.726335,
                        30.694625
                    ],
                    [
                        76.725853,
                        30.695228
                    ],
                    [
                        76.72431,
                        30.697026
                    ],
                    [
                        76.723912,
                        30.697515
                    ],
                    [
                        76.723143,
                        30.698374
                    ],
                    [
                        76.721286,
                        30.700549
                    ],
                    [
                        76.720732,
                        30.70121
                    ],
                    [
                        76.717672,
                        30.704819
                    ],
                    [
                        76.714727,
                        30.708355
                    ],
                    [
                        76.712366,
                        30.711241
                    ],
                    [
                        76.70938,
                        30.714764
                    ],
                    [
                        76.705771,
                        30.719037
                    ],
                    [
                        76.699283,
                        30.726958
                    ],
                    [
                        76.698463,
                        30.727865
                    ],
                    [
                        76.698049,
                        30.72974
                    ],
                    [
                        76.696876,
                        30.731403
                    ],
                    [
                        76.696056,
                        30.732032
                    ],
                    [
                        76.696378,
                        30.732914
                    ],
                    [
                        76.696525,
                        30.733267
                    ],
                    [
                        76.696569,
                        30.733237
                    ]
                ]
            }
        }
    ]
}