{
    "type": "FeatureCollection",
    "features": [
        {
            "type": "Feature",
            "properties": {},
            "geometry": {
                "type": "LineString",
                "coordinates": [
                    [
                        76.677653,
                        30.688619
                    ],
                    [
                        76.682514,
                        30.682876
                    ],
                    [
                        76.68708,
                        30.678101
                    ],
                    [
                        76.691501,
                        30.672653
                    ],
                    [
                        76.69381,
                        30.669589
                    ],
                    [
                        76.699616,
                        30.662722
                    ],
                    [
                        76.703303,
                        30.657992
                    ],
                    [
                        76.707333,
                        30.652587
                    ],
                    [
                        76.708321,
                        30.650479
                    ],
                    [
                        76.708361,
                        30.650479
                    ]
                ]
            }
        }
    ]
}