{
    "type": "FeatureCollection",
    "features": [
        {
            "type": "Feature",
            "properties": {},
            "geometry": {
                "type": "LineString",
                "coordinates": [
                    [
                        76.755508,
                        30.786746
                    ],
                    [
                        76.756193,
                        30.785401
                    ],
                    [
                        76.752182,
                        30.772628
                    ],
                    [
                        76.745336,
                        30.762038
                    ],
                    [
                        76.74426,
                        30.760609
                    ],
                    [
                        76.744064,
                        30.759012
                    ],
                    [
                        76.743771,
                        30.757836
                    ],
                    [
                        76.743672,
                        30.756896
                    ],
                    [
                        76.744442,
                        30.755757
                    ],
                    [
                        76.747093,
                        30.753956
                    ],
                    [
                        76.75344,
                        30.745366
                    ],
                    [
                        76.762429,
                        30.733688
                    ],
                    [
                        76.775308,
                        30.718521
                    ],
                    [
                        76.783575,
                        30.709205
                    ],
                    [
                        76.788391,
                        30.705685
                    ],
                    [
                        76.794596,
                        30.698809
                    ],
                    [
                        76.802637,
                        30.691549
                    ],
                    [
                        76.806198,
                        30.683183
                    ],
                    [
                        76.807783,
                        30.678703
                    ],
                    [
                        76.816163,
                        30.665652
                    ],
                    [
                        76.820466,
                        30.658833
                    ]
                ]
            }
        }
    ]
}