{
    "type": "FeatureCollection",
    "features": [
        {
            "type": "Feature",
            "properties": {},
            "geometry": {
                "type": "LineString",
                "coordinates": [
                    [
                        76.686638,
                        30.694997
                    ],
                    [
                        76.689044,
                        30.695373
                    ],
                    [
                        76.70173,
                        30.703271
                    ],
                    [
                        76.713212,
                        30.710605
                    ],
                    [
                        76.724458,
                        30.717573
                    ],
                    [
                        76.731544,
                        30.7225
                    ],
                    [
                        76.732213,
                        30.725753
                    ],
                    [
                        76.734749,
                        30.728038
                    ],
                    [
                        76.737528,
                        30.729699
                    ],
                    [
                        76.742118,
                        30.730426
                    ],
                    [
                        76.745259,
                        30.730841
                    ],
                    [
                        76.758426,
                        30.739096
                    ],
                    [
                        76.761124,
                        30.741796
                    ],
                    [
                        76.762876,
                        30.744132
                    ],
                    [
                        76.76511,
                        30.74491
                    ],
                    [
                        76.767768,
                        30.745274
                    ],
                    [
                        76.769761,
                        30.746052
                    ],
                    [
                        76.78237,
                        30.754044
                    ],
                    [
                        76.789618,
                        30.75856
                    ],
                    [
                        76.795235,
                        30.762089
                    ],
                    [
                        76.795264,
                        30.762096
                    ]
                ]
            }
        }
    ]
}