{
    "type": "FeatureCollection",
    "features": [
        {
            "type": "Feature",
            "properties": {},
            "geometry": {
                "type": "LineString",
                "coordinates": [
                    [
                        76.754953,
                        30.765138
                    ],
                    [
                        76.757139,
                        30.76217
                    ],
                    [
                        76.757052,
                        30.761719
                    ],
                    [
                        76.762123,
                        30.754882
                    ],
                    [
                        76.767902,
                        30.747938
                    ],
                    [
                        76.770874,
                        30.743827
                    ],
                    [
                        76.774737,
                        30.739102
                    ],
                    [
                        76.779822,
                        30.733374
                    ],
                    [
                        76.785016,
                        30.727485
                    ],
                    [
                        76.79021,
                        30.721827
                    ],
                    [
                        76.79572,
                        30.716198
                    ],
                    [
                        76.801138,
                        30.710847
                    ],
                    [
                        76.801093,
                        30.710847
                    ]
                ]
            }
        }
    ]
}