{
    "type": "FeatureCollection",
    "features": [
        {
            "type": "Feature",
            "properties": {},
            "geometry": {
                "type": "LineString",
                "coordinates": [
                    [
                        76.787306,
                        30.765189
                    ],
                    [
                        76.79352,
                        30.757833
                    ],
                    [
                        76.797213,
                        30.753315
                    ],
                    [
                        76.802254,
                        30.747489
                    ],
                    [
                        76.807226,
                        30.741441
                    ],
                    [
                        76.812702,
                        30.735053
                    ],
                    [
                        76.813614,
                        30.733933
                    ],
                    [
                        76.815179,
                        30.733559
                    ],
                    [
                        76.815245,
                        30.733516
                    ],
                    [
                        76.815239,
                        30.733512
                    ]
                ]
            }
        }
    ]
}