{
    "type": "FeatureCollection",
    "features": [
        {
            "type": "Feature",
            "properties": {},
            "geometry": {
                "type": "LineString",
                "coordinates": [
                    [
                        76.766412,
                        30.689354
                    ],
                    [
                        76.755854,
                        30.700744
                    ],
                    [
                        76.745776,
                        30.712174
                    ],
                    [
                        76.737729,
                        30.722345
                    ],
                    [
                        76.732846,
                        30.728585
                    ],
                    [
                        76.722207,
                        30.743202
                    ]
                ]
            }
        }
    ]
}