{
    "type": "FeatureCollection",
    "features": [
        {
            "type": "Feature",
            "properties": {},
            "geometry": {
                "type": "LineString",
                "coordinates": [
                    [
                        76.711191,
                        30.690901
                    ],
                    [
                        76.731096,
                        30.703182
                    ],
                    [
                        76.737537,
                        30.706941
                    ],
                    [
                        76.739679,
                        30.707823
                    ],
                    [
                        76.740884,
                        30.709166
                    ],
                    [
                        76.746284,
                        30.712582
                    ],
                    [
                        76.748963,
                        30.71427
                    ],
                    [
                        76.757577,
                        30.719641
                    ],
                    [
                        76.769914,
                        30.727198
                    ],
                    [
                        76.777546,
                        30.732032
                    ],
                    [
                        76.790751,
                        30.740327
                    ],
                    [
                        76.802244,
                        30.747394
                    ],
                    [
                        76.80567,
                        30.749544
                    ],
                    [
                        76.80567,
                        30.749591
                    ]
                ]
            }
        }
    ]
}