{
    "type": "FeatureCollection",
    "features": [
        {
            "type": "Feature",
            "properties": {},
            "geometry": {
                "type": "LineString",
                "coordinates": [
                    [
                        76.594956,
                        30.807889
                    ],
                    [
                        76.591649,
                        30.805428
                    ],
                    [
                        76.588636,
                        30.804165
                    ],
                    [
                        76.586211,
                        30.801641
                    ],
                    [
                        76.58386,
                        30.799179
                    ],
                    [
                        76.58386,
                        30.796844
                    ],
                    [
                        76.583492,
                        30.794634
                    ],
                    [
                        76.584521,
                        30.792488
                    ],
                    [
                        76.585844,
                        30.788195
                    ],
                    [
                        76.590507,
                        30.776818
                    ],
                    [
                        76.591798,
                        30.771541
                    ],
                    [
                        76.592157,
                        30.763927
                    ],
                    [
                        76.593355,
                        30.756005
                    ],
                    [
                        76.593053,
                        30.734234
                    ],
                    [
                        76.592959,
                        30.731122
                    ],
                    [
                        76.592959,
                        30.72793
                    ],
                    [
                        76.593218,
                        30.724665
                    ],
                    [
                        76.603542,
                        30.707394
                    ],
                    [
                        76.606528,
                        30.702666
                    ],
                    [
                        76.610337,
                        30.689565
                    ],
                    [
                        76.613792,
                        30.678102
                    ],
                    [
                        76.616123,
                        30.671047
                    ],
                    [
                        76.617245,
                        30.667334
                    ],
                    [
                        76.621672,
                        30.66179
                    ],
                    [
                        76.629446,
                        30.653502
                    ],
                    [
                        76.632601,
                        30.649983
                    ],
                    [
                        76.64008,
                        30.643549
                    ],
                    [
                        76.648781,
                        30.635687
                    ],
                    [
                        76.651407,
                        30.632536
                    ],
                    [
                        76.657812,
                        30.624995
                    ],
                    [
                        76.668597,
                        30.61187
                    ],
                    [
                        76.671463,
                        30.610002
                    ],
                    [
                        76.674798,
                        30.609649
                    ],
                    [
                        76.707554,
                        30.621167
                    ],
                    [
                        76.73798,
                        30.634032
                    ],
                    [
                        76.754367,
                        30.642975
                    ],
                    [
                        76.766723,
                        30.652026
                    ],
                    [
                        76.768985,
                        30.655237
                    ],
                    [
                        76.769819,
                        30.661764
                    ],
                    [
                        76.772969,
                        30.66491
                    ],
                    [
                        76.77828,
                        30.667716
                    ],
                    [
                        76.778407,
                        30.667651
                    ]
                ]
            }
        }
    ]
}