{
    "type": "FeatureCollection",
    "features": [
        {
            "type": "Feature",
            "properties": {},
            "geometry": {
                "type": "LineString",
                "coordinates": [
                    [
                        76.682216,
                        30.683297
                    ],
                    [
                        76.693862,
                        30.690337
                    ],
                    [
                        76.696743,
                        30.692094
                    ],
                    [
                        76.697667,
                        30.693706
                    ],
                    [
                        76.701311,
                        30.695932
                    ],
                    [
                        76.703662,
                        30.695932
                    ],
                    [
                        76.707479,
                        30.698295
                    ],
                    [
                        76.709424,
                        30.699626
                    ],
                    [
                        76.710059,
                        30.699831
                    ],
                    [
                        76.709741,
                        30.700513
                    ],
                    [
                        76.70994,
                        30.702118
                    ],
                    [
                        76.71383,
                        30.702152
                    ],
                    [
                        76.723157,
                        30.708062
                    ],
                    [
                        76.731045,
                        30.713077
                    ],
                    [
                        76.732039,
                        30.713931
                    ],
                    [
                        76.734823,
                        30.717578
                    ],
                    [
                        76.735883,
                        30.718034
                    ],
                    [
                        76.737142,
                        30.718034
                    ],
                    [
                        76.738601,
                        30.717863
                    ],
                    [
                        76.751896,
                        30.726086
                    ],
                    [
                        76.768592,
                        30.736449
                    ],
                    [
                        76.774481,
                        30.7398
                    ],
                    [
                        76.784805,
                        30.746056
                    ],
                    [
                        76.791955,
                        30.750727
                    ],
                    [
                        76.798915,
                        30.754976
                    ],
                    [
                        76.800531,
                        30.75586
                    ],
                    [
                        76.800531,
                        30.75586
                    ]
                ]
            }
        }
    ]
}