{
    "type": "FeatureCollection",
    "features": [
        {
            "type": "Feature",
            "properties": {},
            "geometry": {
                "type": "LineString",
                "coordinates": [
                    [
                        76.555166,
                        30.875741
                    ],
                    [
                        76.565154,
                        30.853264
                    ],
                    [
                        76.561915,
                        30.846543
                    ],
                    [
                        76.559216,
                        30.837272
                    ],
                    [
                        76.559216,
                        30.827769
                    ],
                    [
                        76.562185,
                        30.820119
                    ],
                    [
                        76.571363,
                        30.813627
                    ],
                    [
                        76.582431,
                        30.81015
                    ],
                    [
                        76.592959,
                        30.810613
                    ],
                    [
                        76.597548,
                        30.805513
                    ],
                    [
                        76.628052,
                        30.764928
                    ],
                    [
                        76.641571,
                        30.749563
                    ],
                    [
                        76.644482,
                        30.74595
                    ],
                    [
                        76.643835,
                        30.743588
                    ],
                    [
                        76.645613,
                        30.738446
                    ],
                    [
                        76.652404,
                        30.721212
                    ],
                    [
                        76.66065,
                        30.700778
                    ],
                    [
                        76.665177,
                        30.688821
                    ],
                    [
                        76.666471,
                        30.687431
                    ],
                    [
                        76.668896,
                        30.685345
                    ],
                    [
                        76.669866,
                        30.682564
                    ],
                    [
                        76.668734,
                        30.679227
                    ],
                    [
                        76.682674,
                        30.647565
                    ],
                    [
                        76.689465,
                        30.628507
                    ],
                    [
                        76.691746,
                        30.621184
                    ],
                    [
                        76.691746,
                        30.619636
                    ],
                    [
                        76.694145,
                        30.615185
                    ],
                    [
                        76.703599,
                        30.594385
                    ],
                    [
                        76.713413,
                        30.57523
                    ],
                    [
                        76.715719,
                        30.570909
                    ],
                    [
                        76.718567,
                        30.567755
                    ],
                    [
                        76.721145,
                        30.560046
                    ],
                    [
                        76.723085,
                        30.553866
                    ],
                    [
                        76.72226,
                        30.529265
                    ],
                    [
                        76.723072,
                        30.520093
                    ],
                    [
                        76.724967,
                        30.496925
                    ],
                    [
                        76.724606,
                        30.496847
                    ]
                ]
            }
        }
    ]
}