{
    "type": "FeatureCollection",
    "features": [
        {
            "type": "Feature",
            "properties": {},
            "geometry": {
                "type": "LineString",
                "coordinates": [
                    [
                        76.755428,
                        30.786597
                    ],
                    [
                        76.762183,
                        30.781181
                    ],
                    [
                        76.764885,
                        30.779092
                    ],
                    [
                        76.769388,
                        30.776064
                    ],
                    [
                        76.770289,
                        30.775213
                    ],
                    [
                        76.770739,
                        30.773047
                    ],
                    [
                        76.768848,
                        30.770184
                    ],
                    [
                        76.768757,
                        30.768326
                    ],
                    [
                        76.773988,
                        30.761404
                    ],
                    [
                        76.778759,
                        30.755065
                    ],
                    [
                        76.784691,
                        30.747808
                    ],
                    [
                        76.7887,
                        30.74295
                    ],
                    [
                        76.803333,
                        30.727165
                    ],
                    [
                        76.81195,
                        30.718254
                    ],
                    [
                        76.815788,
                        30.71447
                    ],
                    [
                        76.818609,
                        30.713444
                    ],
                    [
                        76.823384,
                        30.712137
                    ],
                    [
                        76.824795,
                        30.711904
                    ],
                    [
                        76.82588,
                        30.711298
                    ],
                    [
                        76.830275,
                        30.708499
                    ],
                    [
                        76.833856,
                        30.707612
                    ],
                    [
                        76.836949,
                        30.708032
                    ],
                    [
                        76.837003,
                        30.707986
                    ]
                ]
            }
        }
    ]
}