{
    "type": "FeatureCollection",
    "features": [
        {
            "type": "Feature",
            "properties": {},
            "geometry": {
                "type": "LineString",
                "coordinates": [
                    [
                        76.706917,
                        30.799323
                    ],
                    [
                        76.715871,
                        30.803339
                    ],
                    [
                        76.726251,
                        30.808579
                    ],
                    [
                        76.732591,
                        30.812186
                    ],
                    [
                        76.738692,
                        30.815453
                    ],
                    [
                        76.750094,
                        30.819704
                    ],
                    [
                        76.752629,
                        30.820656
                    ],
                    [
                        76.750094,
                        30.823991
                    ],
                    [
                        76.74843,
                        30.824943
                    ],
                    [
                        76.745973,
                        30.824331
                    ],
                    [
                        76.742328,
                        30.82263
                    ],
                    [
                        76.739793,
                        30.821609
                    ],
                    [
                        76.736544,
                        30.821337
                    ],
                    [
                        76.736507,
                        30.821262
                    ]
                ]
            }
        }
    ]
}