{
    "type": "FeatureCollection",
    "features": [
        {
            "type": "Feature",
            "properties": {},
            "geometry": {
                "type": "LineString",
                "coordinates": [
                    [
                        76.733125,
                        30.750502
                    ],
                    [
                        76.738262,
                        30.74388
                    ],
                    [
                        76.744924,
                        30.734912
                    ],
                    [
                        76.751666,
                        30.72615
                    ],
                    [
                        76.761415,
                        30.713988
                    ],
                    [
                        76.773582,
                        30.700444
                    ],
                    [
                        76.777819,
                        30.696614
                    ],
                    [
                        76.777878,
                        30.696633
                    ]
                ]
            }
        }
    ]
}