{
    "type": "FeatureCollection",
    "features": [
        {
            "type": "Feature",
            "properties": {},
            "geometry": {
                "type": "LineString",
                "coordinates": [
                    [
                        76.951467,
                        30.833231
                    ],
                    [
                        76.950045,
                        30.831677
                    ],
                    [
                        76.948493,
                        30.830067
                    ],
                    [
                        76.947006,
                        30.826846
                    ],
                    [
                        76.945713,
                        30.825291
                    ],
                    [
                        76.941445,
                        30.82307
                    ],
                    [
                        76.939958,
                        30.822293
                    ],
                    [
                        76.939699,
                        30.817684
                    ],
                    [
                        76.938277,
                        30.814463
                    ],
                    [
                        76.935884,
                        30.81363
                    ],
                    [
                        76.932065,
                        30.807695
                    ],
                    [
                        76.929798,
                        30.805006
                    ],
                    [
                        76.928278,
                        30.803548
                    ],
                    [
                        76.926939,
                        30.802262
                    ],
                    [
                        76.925836,
                        30.801856
                    ],
                    [
                        76.924417,
                        30.802059
                    ],
                    [
                        76.923157,
                        30.801653
                    ],
                    [
                        76.922211,
                        30.800773
                    ],
                    [
                        76.921502,
                        30.797998
                    ],
                    [
                        76.920081,
                        30.794675
                    ],
                    [
                        76.91745,
                        30.792527
                    ],
                    [
                        76.913721,
                        30.78554
                    ],
                    [
                        76.910637,
                        30.77994
                    ],
                    [
                        76.908074,
                        30.774981
                    ],
                    [
                        76.906389,
                        30.767557
                    ],
                    [
                        76.904703,
                        30.76122
                    ],
                    [
                        76.904613,
                        30.747924
                    ],
                    [
                        76.902759,
                        30.744003
                    ],
                    [
                        76.896698,
                        30.737218
                    ],
                    [
                        76.894481,
                        30.733679
                    ],
                    [
                        76.886245,
                        30.72374
                    ],
                    [
                        76.878959,
                        30.715707
                    ],
                    [
                        76.875633,
                        30.712303
                    ],
                    [
                        76.871674,
                        30.701817
                    ],
                    [
                        76.871884,
                        30.697428
                    ],
                    [
                        76.866757,
                        30.689411
                    ],
                    [
                        76.861163,
                        30.678888
                    ],
                    [
                        76.845702,
                        30.664258
                    ],
                    [
                        76.820939,
                        30.658695
                    ],
                    [
                        76.821041,
                        30.658637
                    ],
                    [
                        76.820899,
                        30.65528
                    ],
                    [
                        76.814913,
                        30.651109
                    ],
                    [
                        76.812039,
                        30.649049
                    ],
                    [
                        76.804292,
                        30.640174
                    ],
                    [
                        76.800169,
                        30.633967
                    ],
                    [
                        76.796065,
                        30.629067
                    ],
                    [
                        76.786001,
                        30.618397
                    ],
                    [
                        76.780341,
                        30.612048
                    ],
                    [
                        76.76261,
                        30.596067
                    ],
                    [
                        76.74562,
                        30.579866
                    ],
                    [
                        76.731951,
                        30.568395
                    ],
                    [
                        76.728651,
                        30.565465
                    ],
                    [
                        76.725455,
                        30.564311
                    ],
                    [
                        76.721743,
                        30.562269
                    ],
                    [
                        76.718134,
                        30.559072
                    ],
                    [
                        76.71282,
                        30.552678
                    ],
                    [
                        76.710701,
                        30.550245
                    ],
                    [
                        76.686347,
                        30.536124
                    ],
                    [
                        76.67496,
                        30.52966
                    ],
                    [
                        76.663833,
                        30.522304
                    ],
                    [
                        76.654775,
                        30.516508
                    ]
                ]
            }
        }
    ]
}