{
    "type": "FeatureCollection",
    "features": [
        {
            "type": "Feature",
            "properties": {},
            "geometry": {
                "type": "LineString",
                "coordinates": [
                    [
                        76.818181,
                        30.72262
                    ],
                    [
                        76.815435,
                        30.719991
                    ],
                    [
                        76.812434,
                        30.717954
                    ],
                    [
                        76.806589,
                        30.714321
                    ],
                    [
                        76.800863,
                        30.710722
                    ],
                    [
                        76.790057,
                        30.703985
                    ],
                    [
                        76.78038,
                        30.697757
                    ],
                    [
                        76.778124,
                        30.696379
                    ],
                    [
                        76.777056,
                        30.696583
                    ],
                    [
                        76.775631,
                        30.695919
                    ],
                    [
                        76.775037,
                        30.69449
                    ],
                    [
                        76.767023,
                        30.689181
                    ],
                    [
                        76.75674,
                        30.683043
                    ],
                    [
                        76.753317,
                        30.680472
                    ],
                    [
                        76.749027,
                        30.677863
                    ],
                    [
                        76.746816,
                        30.676288
                    ],
                    [
                        76.74516,
                        30.676012
                    ],
                    [
                        76.742327,
                        30.674449
                    ],
                    [
                        76.731369,
                        30.666588
                    ],
                    [
                        76.731349,
                        30.666521
                    ]
                ]
            }
        }
    ]
}