{
    "type": "FeatureCollection",
    "features": [
        {
            "type": "Feature",
            "properties": {},
            "geometry": {
                "type": "LineString",
                "coordinates": [
                    [
                        76.676964,
                        30.659822
                    ],
                    [
                        76.681105,
                        30.66245
                    ],
                    [
                        76.693528,
                        30.670391
                    ],
                    [
                        76.716995,
                        30.685261
                    ],
                    [
                        76.721738,
                        30.68814
                    ],
                    [
                        76.722668,
                        30.68982
                    ],
                    [
                        76.724529,
                        30.690779
                    ],
                    [
                        76.726296,
                        30.690859
                    ],
                    [
                        76.728156,
                        30.692299
                    ],
                    [
                        76.739491,
                        30.699352
                    ],
                    [
                        76.74043,
                        30.699728
                    ],
                    [
                        76.742685,
                        30.700375
                    ],
                    [
                        76.744501,
                        30.701505
                    ],
                    [
                        76.745667,
                        30.703265
                    ],
                    [
                        76.757422,
                        30.710621
                    ],
                    [
                        76.761874,
                        30.713431
                    ],
                    [
                        76.774898,
                        30.721433
                    ],
                    [
                        76.791198,
                        30.731533
                    ],
                    [
                        76.80454,
                        30.740001
                    ],
                    [
                        76.810455,
                        30.743753
                    ]
                ]
            }
        }
    ]
}