{
    "type": "FeatureCollection",
    "features": [
        {
            "type": "Feature",
            "properties": {},
            "geometry": {
                "type": "LineString",
                "coordinates": [
                    [
                        76.66411,
                        30.691181
                    ],
                    [
                        76.670807,
                        30.693794
                    ],
                    [
                        76.672668,
                        30.694807
                    ],
                    [
                        76.675582,
                        30.694914
                    ],
                    [
                        76.684451,
                        30.694701
                    ],
                    [
                        76.686621,
                        30.695074
                    ],
                    [
                        76.68966,
                        30.694594
                    ],
                    [
                        76.699177,
                        30.683369
                    ],
                    [
                        76.703672,
                        30.678323
                    ],
                    [
                        76.713348,
                        30.666653
                    ],
                    [
                        76.721843,
                        30.657002
                    ],
                    [
                        76.72184,
                        30.656941
                    ]
                ]
            }
        }
    ]
}