{
    "type": "FeatureCollection",
    "features": [
        {
            "type": "Feature",
            "properties": {},
            "geometry": {
                "type": "LineString",
                "coordinates": [
                    [
                        76.679523,
                        30.653874
                    ],
                    [
                        76.683114,
                        30.654722
                    ],
                    [
                        76.71698,
                        30.676403
                    ],
                    [
                        76.731388,
                        30.685491
                    ],
                    [
                        76.731845,
                        30.686867
                    ],
                    [
                        76.732393,
                        30.687457
                    ],
                    [
                        76.733262,
                        30.686278
                    ],
                    [
                        76.742404,
                        30.692174
                    ],
                    [
                        76.757419,
                        30.701574
                    ],
                    [
                        76.778483,
                        30.714698
                    ],
                    [
                        76.801459,
                        30.729199
                    ],
                    [
                        76.811951,
                        30.7356
                    ],
                    [
                        76.811951,
                        30.7356
                    ]
                ]
            }
        }
    ]
}