{
    "type": "FeatureCollection",
    "features": [
        {
            "type": "Feature",
            "properties": {},
            "geometry": {
                "type": "LineString",
                "coordinates": [
                    [
                        76.791103,
                        30.767258
                    ],
                    [
                        76.793329,
                        30.764564
                    ],
                    [
                        76.797827,
                        30.759138
                    ],
                    [
                        76.80078,
                        30.755663
                    ],
                    [
                        76.806088,
                        30.749241
                    ],
                    [
                        76.810791,
                        30.74396
                    ],
                    [
                        76.810799,
                        30.743911
                    ],
                    [
                        76.810774,
                        30.743911
                    ]
                ]
            }
        }
    ]
}