{
    "type": "FeatureCollection",
    "features": [
        {
            "type": "Feature",
            "properties": {},
            "geometry": {
                "type": "LineString",
                "coordinates": [
                    [
                        76.683995,
                        30.701612
                    ],
                    [
                        76.686688,
                        30.70327
                    ],
                    [
                        76.689672,
                        30.705154
                    ],
                    [
                        76.692207,
                        30.706698
                    ],
                    [
                        76.696168,
                        30.709104
                    ],
                    [
                        76.702769,
                        30.713236
                    ],
                    [
                        76.707997,
                        30.716573
                    ],
                    [
                        76.713546,
                        30.719856
                    ],
                    [
                        76.719196,
                        30.723494
                    ],
                    [
                        76.728631,
                        30.729462
                    ],
                    [
                        76.731041,
                        30.730948
                    ],
                    [
                        76.739675,
                        30.736358
                    ],
                    [
                        76.744362,
                        30.739251
                    ],
                    [
                        76.74973,
                        30.74262
                    ],
                    [
                        76.76389,
                        30.751401
                    ],
                    [
                        76.768588,
                        30.7544
                    ],
                    [
                        76.772883,
                        30.757066
                    ],
                    [
                        76.776714,
                        30.759481
                    ],
                    [
                        76.786641,
                        30.764667
                    ],
                    [
                        76.791587,
                        30.767387
                    ],
                    [
                        76.79162,
                        30.767392
                    ]
                ]
            }
        }
    ]
}